OBJECT_NAME,OBJECT_ID,EPOCH,MEAN_MOTION,ECCENTRICITY,INCLINATION,RA_OF_ASC_NODE,ARG_OF_PERICENTER,MEAN_ANOMALY,EPHEMERIS_TYPE,CLASSIFICATION_TYPE,NORAD_CAT_ID,ELEMENT_SET_NO,REV_AT_EPOCH,BSTAR,MEAN_MOTION_DOT,MEAN_MOTION_DDOT
GPS BIIR-2  (PRN 13),1997-035A,2026-03-01T00:14:10.378176,2.00563922,.00978565,55.9334,102.8040,56.2915,304.7159,0,U,24876,999,20978,0,.2E-6,0
GPS BIIR-5  (PRN 22),2000-040A,2026-02-28T20:11:28.702752,2.00568803,.01227847,54.8763,219.4631,302.5190,229.8849,0,U,26407,999,18777,0,.9E-7,0
GPS BIIR-8  (PRN 16),2003-005A,2026-03-01T10:15:24.723936,2.00566372,.0148736,54.9080,219.2478,52.6971,318.8246,0,U,27663,999,16915,0,.2E-7,0
GPS BIIR-11 (PRN 19),2004-009A,2026-03-01T08:58:02.491680,2.00558119,.0110828,54.9186,280.0421,168.9880,319.7388,0,U,28190,999,16078,0,.5E-7,0
GPS BIIR-13 (PRN 02),2004-045A,2026-03-01T08:34:28.324128,2.00573160,.0170887,55.1965,329.2420,312.7031,227.4565,0,U,28474,999,15626,0,-.88E-6,0
GPS BIIRM-1 (PRN 17),2005-038A,2026-03-01T08:31:54.393024,2.00573138,.0128882,54.9654,277.5282,295.2964,203.9501,0,U,28874,999,14967,0,.9E-7,0
GPS BIIRM-2 (PRN 31),2006-042A,2026-03-01T07:43:28.608096,2.00575456,.0106807,54.6984,155.6224,52.8668,319.0585,0,U,29486,999,14223,0,-.26E-6,0
GPS BIIRM-3 (PRN 12),2006-052A,2026-02-28T17:21:54.682848,2.00551333,.0087934,54.9584,218.3028,89.3093,271.6592,0,U,29601,999,14123,0,.1E-6,0
GPS BIIRM-4 (PRN 15),2007-047A,2026-03-01T00:43:58.249920,2.00560826,.01635783,54.0129,84.5227,85.9294,276.0062,0,U,32260,999,13464,0,.12E-6,0
GPS BIIRM-5 (PRN 29),2007-062A,2026-03-01T02:14:28.801824,2.00553256,.00328376,55.1174,278.4968,160.6293,12.9281,0,U,32384,999,13334,0,.11E-6,0
GPS BIIRM-6 (PRN 07),2008-012A,2026-02-28T10:48:29.520288,2.00568968,.02067443,54.4822,154.2701,246.1169,111.7145,0,U,32711,999,13157,0,-.31E-6,0
GPS BIIRM-8 (PRN 05),2009-043A,2026-03-01T01:47:29.343552,2.00560547,.00516413,56.1461,31.6985,80.7088,26.1118,0,U,35752,999,12119,0,-.69E-6,0
GPS BIIF-1  (PRN 25),2010-022A,2026-02-28T20:17:04.034976,2.00557011,.01273627,54.2895,212.9243,65.8580,352.0725,0,U,36585,999,11542,0,0,0
GPS BIIF-3  (PRN 24),2012-053A,2026-03-01T03:02:46.572288,2.00565715,.01769077,53.5655,148.0278,64.7622,297.0835,0,U,38833,999,9727,0,-.23E-6,0
GPS BIIF-4  (PRN 27),2013-023A,2026-02-28T23:48:10.016640,2.00564138,.01415289,54.5885,273.3798,49.8622,311.4171,0,U,39166,999,9371,0,.17E-6,0
GPS BIIF-5  (PRN 30),2014-008A,2026-02-28T23:45:41.692896,2.00552830,.0082182,53.6376,153.7343,228.1724,131.1354,0,U,39533,999,8751,0,-.28E-6,0
GPS BIIF-6  (PRN 06),2014-026A,2026-03-01T06:26:29.177664,2.00568795,.0039909,56.5480,335.7218,324.3215,35.4388,0,U,39741,999,8637,0,-.96E-6,0
GPS BIIF-7  (PRN 09),2014-045A,2026-02-28T08:36:10.817856,2.00551177,.0031587,55.2783,92.7996,120.5582,239.8250,0,U,40105,999,8389,0,.16E-6,0
GPS BIIF-8  (PRN 03),2014-068A,2026-03-01T05:37:03.155520,2.00569484,.0062653,56.9172,35.1139,68.0452,292.6136,0,U,40294,999,8304,0,-.62E-6,0
GPS BIIF-9  (PRN 26),2015-013A,2026-03-01T08:45:59.035968,2.00557717,.0108721,53.1869,208.6351,39.7688,320.9703,0,U,40534,999,7966,0,-.12E-6,0
GPS BIIF-10 (PRN 08),2015-033A,2026-03-01T12:37:14.693664,2.00561672,.0114429,54.0667,271.5237,28.9222,331.7504,0,U,40730,999,7783,0,.11E-6,0
GPS BIIF-11 (PRN 10),2015-062A,2026-03-01T02:04:02.445888,2.00567016,.0111464,56.8906,34.9758,231.4723,127.5197,0,U,41019,999,7566,0,-.61E-6,0
GPS BIIF-12 (PRN 32),2016-007A,2026-03-01T04:06:46.317024,2.00556836,.00953512,55.4534,93.7411,245.9160,113.1547,0,U,41328,999,7367,0,.2E-6,0
GPS BIII-1  (PRN 04),2018-109A,2026-03-01T06:02:06.000576,2.00556460,.0037866,55.6128,96.4437,198.2214,112.1971,0,U,43873,999,5290,0,.21E-6,0
GPS BIII-2  (PRN 18),2019-056A,2026-03-01T04:44:28.805568,2.00568051,.00580161,55.6862,335.4369,198.2399,333.4311,0,U,44506,999,4790,0,-.96E-6,0
GPS BIII-3  (PRN 23),2020-041A,2026-03-01T06:42:43.721280,2.00560506,.0061323,56.6039,33.1302,205.2440,327.9609,0,U,45854,999,4187,0,-.67E-6,0
GPS BIII-4  (PRN 14),2020-078A,2026-02-28T19:35:04.984224,2.00565486,.00680489,54.0030,215.1712,204.2108,327.3641,0,U,46826,999,3933,0,.3E-7,0
GPS BIII-5  (PRN 11),2021-054A,2026-02-28T20:01:28.410240,2.00575560,.00239334,55.2227,336.8175,232.1967,136.7560,0,U,48859,999,3458,0,-.98E-6,0
GPS BIII-6  (PRN 28),2023-009A,2026-02-28T18:21:27.213984,2.00549258,.00047588,55.1093,152.7809,333.1698,25.1517,0,U,55268,999,2306,0,-.28E-6,0
GPS BIII-7  (PRN 01),2024-242A,2026-02-28T09:59:38.815872,2.00569355,.0015681,54.8934,338.5934,355.9356,192.4850,0,U,62339,999,907,0,-.1E-5,0
GPS BIII-8  (PRN 21),2025-116A,2026-03-01T09:29:38.054112,2.00553169,.0008434,55.1654,35.4679,324.7400,36.5418,0,U,64202,999,571,0,-.66E-6,0
